COSMOS 2565             
1 54381U 22163A   22347.05296312 -.00000047  00000+0  20049-4 0  9991
2 54381  67.1534 343.4714 0006907 268.4690  91.5603 13.96672421  1727
SL-4 R/B                
1 54382U 22163B   22346.97887678  .00114133  69064-5  58441-3 0  9991
2 54382  67.1319 338.8154 0455474  81.0605 284.1792 15.04946175  1828
2022-163C               
1 54383U 22163C   22346.69189072 -.00000004  00000+0  51167-4 0  9994
2 54383  67.1419 344.3280 0010841 322.1225  37.9096 13.97181987  1366
1998-067UL              
1 54534U 98067UL  22340.86252666  .00085099  00000+0  14432-2 0  9999
2 54534  51.6411 201.1483 0007784 141.2081 329.2667 15.50741142   750
1998-067UM              
1 54535U 98067UM  22346.79168769  .00046972  00000+0  78801-3 0  9996
2 54535  51.6430 171.7237 0006858 162.3207 316.9119 15.51311826  1676
1998-067UN              
1 54536U 98067UN  22346.85106713  .00034289  00000+0  58118-3 0  9992
2 54536  51.6379 171.4350 0008364 163.9585 285.2450 15.51158135  1647
1998-067UP              
1 54537U 98067UP  22346.79164208  .00040705  00000+0  68560-3 0  9991
2 54537  51.6434 171.7220 0007282 161.1345 318.1009 15.51261379  1675
2022-164A               
1 54588U 22164A   22346.77544274  .00001364  00000+0  40717-3 0  9997
2 54588  98.3565  14.0636 0008562 260.6870  99.3312 14.44524614   831
KZ-11 R/B               
1 54589U 22164B   22346.93649910 -.00000667  21092-5  00000+0 0  9992
2 54589  98.3663  14.8686 0381095  85.8089 278.6586 15.07575693   892
2022-165A               
1 54640U 22165A   22346.18717875  .00021105  00000+0  41092-2 0  9992
2 54640  98.1191 284.6332 0012045 312.1492 169.0985 14.63017436   500
2022-165B               
1 54641U 22165B   22346.77693539  .00000625  00000+0  12375-3 0  9995
2 54641  98.0284 285.0666 0033487 290.4721  69.2906 14.65347863   588
ONEWEB A                
1 54642U 22166A   22346.91667824  .00052668  00000+0  52754-2 0  9999
2 54642  86.5167 156.5921 0006878 221.3770  32.3408 14.91119578  1306
ONEWEB B                
1 54643U 22166B   22346.91667824  .00052794  00000+0  52899-2 0  9990
2 54643  86.5180 156.5927 0006835 222.2117  31.2231 14.91104732  1304
ONEWEB C                
1 54644U 22166C   22346.91667824  .00052514  00000+0  52252-2 0  9994
2 54644  86.5162 156.5900 0008192 219.5617  37.7312 14.91378477  1308
ONEWEB D                
1 54645U 22166D   22346.91667824  .00052779  00000+0  53034-2 0  9997
2 54645  86.5146 156.5909 0006635 225.9715  25.9291 14.90992156  1300
ONEWEB E                
1 54646U 22166E   22346.66668981 -.00042200  00000+0 -41574-2 0  9991
2 54646  86.5168 156.6999 0011694 231.8853 136.2482 14.92339742  1301
ONEWEB F                
1 54647U 22166F   22346.91667824  .00052710  00000+0  52888-2 0  9990
2 54647  86.5149 156.5912 0006749 224.0931  28.5779 14.91049899  1303
ONEWEB G                
1 54648U 22166G   22346.91667824  .00051530  00000+0  50420-2 0  9990
2 54648  86.5155 156.5905 0010974 226.3733  40.2603 14.92035211  1304
ONEWEB H                
1 54649U 22166H   22346.91667824  .00052207  00000+0  51724-2 0  9991
2 54649  86.5163 156.5884 0008985 220.0960  39.6604 14.91547320  1303
ONEWEB J                
1 54650U 22166J   22346.91667824  .00052169  00000+0  51482-2 0  9991
2 54650  86.5167 156.5902 0009654 219.9502  41.9124 14.91701323  1301
ONEWEB K                
1 54651U 22166K   22346.91667824  .00052289  00000+0  51690-2 0  9996
2 54651  86.5161 156.5885 0009317 220.4796  40.3955 14.91633501  1301
ONEWEB L                
1 54652U 22166L   22346.91667824  .00052393  00000+0  52170-2 0  9997
2 54652  86.5169 156.5916 0008066 219.5516  37.3487 14.91350775  1309
ONEWEB M                
1 54653U 22166M   22346.91667824  .00053071  00000+0  53532-2 0  9995
2 54653  86.5186 156.5940 0006230 231.1953  18.4806 14.90838204  1304
ONEWEB N                
1 54654U 22166N   22346.91667824  .00052424  00000+0  52007-2 0  9993
2 54654  86.5174 156.5933 0008760 219.5389  39.4730 14.91495042  1306
ONEWEB P                
1 54655U 22166P   22346.91667824  .00051476  00000+0  50096-2 0  9996
2 54655  86.5160 156.5900 0011447 230.4062  39.1612 14.92246157  1300
ONEWEB Q                
1 54656U 22166Q   22346.91667824  .00051459  00000+0  50186-2 0  9998
2 54656  86.5154 156.5902 0011212 229.0622  39.3779 14.92164199  1303
ONEWEB R                
1 54657U 22166R   22346.91667824  .00051458  00000+0  50215-2 0  9991
2 54657  86.5185 156.5884 0011150 228.5705  39.4867 14.92140472  1301
ONEWEB S                
1 54658U 22166S   22346.91667824  .00052981  00000+0  53398-2 0  9999
2 54658  86.5147 156.5917 0006301 229.9250  20.2298 14.90871099  1309
ONEWEB T                
1 54659U 22166T   22346.91667824  .00052367  00000+0  51841-2 0  9999
2 54659  86.5174 156.5931 0009083 220.3244  39.7758 14.91577633  1308
ONEWEB U                
1 54660U 22166U   22346.91667824  .00051810  00000+0  50823-2 0  9992
2 54660  86.5168 156.5899 0010629 224.6599  40.5630 14.91934989  1304
ONEWEB V                
1 54661U 22166V   22346.91667824  .00052137  00000+0  51586-2 0  9993
2 54661  86.5176 156.5930 0009192 220.3494  40.0988 14.91599316  1302
ONEWEB W                
1 54662U 22166W   22346.91667824  .00052207  00000+0  51857-2 0  9993
2 54662  86.5161 156.5888 0008544 219.2467  39.0700 14.91446890  1304
ONEWEB X                
1 54663U 22166X   22346.91667824  .00051503  00000+0  50328-2 0  9994
2 54663  86.5152 156.5902 0011092 227.3479  39.9743 14.92086251  1305
ONEWEB Y                
1 54664U 22166Y   22346.91667824  .00051596  00000+0  50229-2 0  9997
2 54664  86.5158 156.5901 0011371 230.2070  39.1418 14.92233348  1303
ONEWEB Z                
1 54665U 22166Z   22346.91667824  .00051584  00000+0  50429-2 0  9997
2 54665  86.5182 156.5887 0011042 226.8809  40.1578 14.92068522  1309
ONEWEB AA               
1 54666U 22166AA  22346.91667824  .00051627  00000+0  50537-2 0  9996
2 54666  86.5179 156.5885 0010907 225.9597  40.4353 14.92017697  1308
ONEWEB AB               
1 54667U 22166AB  22346.91667824  .00053070  00000+0  53592-2 0  9995
2 54667  86.5156 156.5926 0006193 233.0018  16.0501 14.90793219  1303
ONEWEB AC               
1 54668U 22166AC  22346.91667824  .00053620  00000+0  53973-2 0  9990
2 54668  86.5190 156.5948 0006408 228.3273  22.4970 14.90918937  1302
ONEWEB AD               
1 54669U 22166AD  22346.91667824  .00053678  00000+0  54237-2 0  9998
2 54669  86.5168 156.5933 0006159 234.0875  14.5894 14.90767103  1301
ONEWEB AE               
1 54670U 22166AE  22346.91667824  .00053632  00000+0  53840-2 0  9999
2 54670  86.5189 156.5939 0006700 225.0000  27.3236 14.91024854  1306
ONEWEB AF               
1 54671U 22166AF  22346.91667824  .00053532  00000+0  53813-2 0  9999
2 54671  86.5148 156.5911 0006573 226.8402  24.7322 14.90971766  1304
ONEWEB AG               
1 54672U 22166AG  22346.91667824  .00051638  00000+0  50604-2 0  9990
2 54672  86.5162 156.5908 0010751 225.1889  40.5381 14.91974457  1303
ONEWEB AH               
1 54673U 22166AH  22346.91667824  .00053477  00000+0  53635-2 0  9991
2 54673  86.5152 156.5916 0006782 223.6956  29.1572 14.91062351  1305
ONEWEB AJ               
1 54674U 22166AJ  22346.91667824  .00052955  00000+0  52316-2 0  9997
2 54674  86.5176 156.5926 0009430 220.2331  40.9555 14.91654063  1305
ONEWEB AK               
1 54675U 22166AK  22346.91667824  .00053615  00000+0  54002-2 0  9996
2 54675  86.5189 156.5945 0006341 229.0952  21.3753 14.90893835  1309
ONEWEB AL               
1 54676U 22166AL  22346.91667824  .00053255  00000+0  52925-2 0  9999
2 54676  86.5175 156.5935 0008418 219.0523  38.8856 14.91422290  1305
ONEWEB AM               
1 54677U 22166AM  22346.91667824  .00053272  00000+0  52968-2 0  9996
2 54677  86.5160 156.5897 0008322 219.3610  38.2985 14.91402580  1308
ONEWEB AN               
1 54678U 22166AN  22346.91667824  .00053405  00000+0  52998-2 0  9998
2 54678  86.5163 156.5888 0008664 219.2149  39.4909 14.91477087  1300
ONEWEB AP               
1 54679U 22166AP  22346.66668981 -.00043046  00000+0 -44062-2 0  9991
2 54679  86.5183 156.7048 0006265 233.0447 115.4830 14.90853550  1303
ONEWEB AQ               
1 54680U 22166AQ  22346.66668981 -.00042343  00000+0 -42039-2 0  9994
2 54680  86.5175 156.6998 0010900 226.5723 137.6256 14.92038485  1306
ONEWEB AR               
1 54681U 22166AR  22346.91667824  .00051631  00000+0  50295-2 0  9999
2 54681  86.5181 156.5880 0011279 229.6567  39.2832 14.92209126  1302
2022-167A               
1 54682U 22167A   22346.89905361  .00009740  00000+0  62468-3 0  9999
2 54682  97.5384 121.8364 0013106 252.8911 107.0879 15.08633564   550
2022-167B               
1 54683U 22167B   22346.95350894  .00032014  00000+0  36548-3 0  9992
2 54683  97.5875 122.1090 0204812 312.6438  45.7696 15.40673700   547
CAS-5A                  
1 54684U 22167C   22346.96508552  .00007942  00000+0  50863-3 0  9998
2 54684  97.5391 121.9011 0013374 254.0615 105.9141 15.08748069   558
2022-167D               
1 54685U 22167D   22346.96350626  .00004698  00000+0  29755-3 0  9997
2 54685  97.5435 121.9026 0012090 266.2636  93.7210 15.09387728   559
2022-167E               
1 54686U 22167E   22346.89721932  .00006153  00000+0  38839-3 0  9993
2 54686  97.5420 121.8396 0012078 267.6134  92.3705 15.09385426   543
2022-167F               
1 54687U 22167F   22346.96340672  .00006979  00000+0  43929-3 0  9992
2 54687  97.5389 121.9030 0012721 267.4730  92.5031 15.09434433   557
2022-167G               
1 54688U 22167G   22346.49925260  .00009241  00000+0  57934-3 0  9999
2 54688  97.5348 121.4445 0013133 270.0200  89.9521 15.09486439   487
2022-167H               
1 54689U 22167H   22346.96317644  .00009081  00000+0  56849-3 0  9999
2 54689  97.5454 121.9084 0013821 274.8464  85.1139 15.09535853   554
